CCSDS_OMM_VERS = 2.0
CREATION_DATE  = 
ORIGINATOR     = 

OBJECT_NAME    = YOTSUBA-KULOVER
OBJECT_ID      = 1998-067XN
CENTER_NAME    = EARTH
REF_FRAME      = TEME
TIME_SYSTEM    = UTC
MEAN_ELEMENT_THEORY = SGP/SGP4

EPOCH          = 2026-02-19T12:24:50.832000
MEAN_MOTION    = 15.73892363
ECCENTRICITY   = .0005202
INCLINATION    = 51.6244
RA_OF_ASC_NODE = 151.0396
ARG_OF_PERICENTER = 331.8921
MEAN_ANOMALY   = 28.1797

EPHEMERIS_TYPE = 0
CLASSIFICATION_TYPE = U
NORAD_CAT_ID   = 65941
ELEMENT_SET_NO = 999
REV_AT_EPOCH   = 2063
BSTAR          = .92807416E-3
MEAN_MOTION_DOT = .136059E-2
MEAN_MOTION_DDOT = 0

CCSDS_OMM_VERS = 2.0
CREATION_DATE  = 
ORIGINATOR     = 

OBJECT_NAME    = BOTAN
OBJECT_ID      = 1998-067XP
CENTER_NAME    = EARTH
REF_FRAME      = TEME
TIME_SYSTEM    = UTC
MEAN_ELEMENT_THEORY = SGP/SGP4

EPOCH          = 2026-02-19T12:46:18.872832
MEAN_MOTION    = 15.93841465
ECCENTRICITY   = .00097272
INCLINATION    = 51.6151
RA_OF_ASC_NODE = 145.8072
ARG_OF_PERICENTER = 351.0195
MEAN_ANOMALY   = 9.0636

EPHEMERIS_TYPE = 0
CLASSIFICATION_TYPE = U
NORAD_CAT_ID   = 65942
ELEMENT_SET_NO = 999
REV_AT_EPOCH   = 2070
BSTAR          = .13853563E-2
MEAN_MOTION_DOT = .518361E-2
MEAN_MOTION_DDOT = .11850449E-3

CCSDS_OMM_VERS = 2.0
CREATION_DATE  = 
ORIGINATOR     = 

OBJECT_NAME    = E-KAGAKU-1
OBJECT_ID      = 1998-067XQ
CENTER_NAME    = EARTH
REF_FRAME      = TEME
TIME_SYSTEM    = UTC
MEAN_ELEMENT_THEORY = SGP/SGP4

EPOCH          = 2026-02-19T12:27:18.256320
MEAN_MOTION    = 15.73725053
ECCENTRICITY   = .00053338
INCLINATION    = 51.6273
RA_OF_ASC_NODE = 151.0652
ARG_OF_PERICENTER = 343.3956
MEAN_ANOMALY   = 16.6867

EPHEMERIS_TYPE = 0
CLASSIFICATION_TYPE = U
NORAD_CAT_ID   = 65943
ELEMENT_SET_NO = 999
REV_AT_EPOCH   = 2063
BSTAR          = .90889832E-3
MEAN_MOTION_DOT = .13222E-2
MEAN_MOTION_DDOT = 0

CCSDS_OMM_VERS = 2.0
CREATION_DATE  = 
ORIGINATOR     = 

OBJECT_NAME    = HRC MONOBLOCK CAMERA
OBJECT_ID      = 1998-067XR
CENTER_NAME    = EARTH
REF_FRAME      = TEME
TIME_SYSTEM    = UTC
MEAN_ELEMENT_THEORY = SGP/SGP4

EPOCH          = 2026-02-19T12:29:58.297632
MEAN_MOTION    = 15.60240536
ECCENTRICITY   = .00024515
INCLINATION    = 51.6291
RA_OF_ASC_NODE = 157.0873
ARG_OF_PERICENTER = 23.1044
MEAN_ANOMALY   = 337.0059

EPHEMERIS_TYPE = 0
CLASSIFICATION_TYPE = U
NORAD_CAT_ID   = 66052
ELEMENT_SET_NO = 999
REV_AT_EPOCH   = 1955
BSTAR          = .53405687E-3
MEAN_MOTION_DOT = .44157E-3
MEAN_MOTION_DDOT = 0

CCSDS_OMM_VERS = 2.0
CREATION_DATE  = 
ORIGINATOR     = 

OBJECT_NAME    = HTV-X1
OBJECT_ID      = 2025-241A
CENTER_NAME    = EARTH
REF_FRAME      = TEME
TIME_SYSTEM    = UTC
MEAN_ELEMENT_THEORY = SGP/SGP4

EPOCH          = 2026-02-19T13:41:39.876288
MEAN_MOTION    = 15.48140240
ECCENTRICITY   = .00086043
INCLINATION    = 51.6323
RA_OF_ASC_NODE = 161.9142
ARG_OF_PERICENTER = 112.9152
MEAN_ANOMALY   = 247.2745

EPHEMERIS_TYPE = 0
CLASSIFICATION_TYPE = U
NORAD_CAT_ID   = 66174
ELEMENT_SET_NO = 999
REV_AT_EPOCH   = 51
BSTAR          = .13586232E-3
MEAN_MOTION_DOT = .6828E-4
MEAN_MOTION_DDOT = 0

CCSDS_OMM_VERS = 2.0
CREATION_DATE  = 
ORIGINATOR     = 

OBJECT_NAME    = SZ-21 MODULE
OBJECT_ID      = 2025-246C
CENTER_NAME    = EARTH
REF_FRAME      = TEME
TIME_SYSTEM    = UTC
MEAN_ELEMENT_THEORY = SGP/SGP4

EPOCH          = 2026-02-19T02:10:29.836704
MEAN_MOTION    = 15.67079513
ECCENTRICITY   = .0001783
INCLINATION    = 41.4761
RA_OF_ASC_NODE = 317.7232
ARG_OF_PERICENTER = 298.3543
MEAN_ANOMALY   = 61.7118

EPHEMERIS_TYPE = 0
CLASSIFICATION_TYPE = U
NORAD_CAT_ID   = 66515
ELEMENT_SET_NO = 999
REV_AT_EPOCH   = 1515
BSTAR          = .27525603E-3
MEAN_MOTION_DOT = .30016E-3
MEAN_MOTION_DDOT = 0

CCSDS_OMM_VERS = 2.0
CREATION_DATE  = 
ORIGINATOR     = 

OBJECT_NAME    = SHENZHOU-22
OBJECT_ID      = 2025-272A
CENTER_NAME    = EARTH
REF_FRAME      = TEME
TIME_SYSTEM    = UTC
MEAN_ELEMENT_THEORY = SGP/SGP4

EPOCH          = 2026-02-19T05:12:18.808704
MEAN_MOTION    = 15.59868728
ECCENTRICITY   = .00044524
INCLINATION    = 41.4677
RA_OF_ASC_NODE = 320.4938
ARG_OF_PERICENTER = 142.8604
MEAN_ANOMALY   = 217.2543

EPHEMERIS_TYPE = 0
CLASSIFICATION_TYPE = U
NORAD_CAT_ID   = 66645
ELEMENT_SET_NO = 999
REV_AT_EPOCH   = 26764
BSTAR          = .30289814E-3
MEAN_MOTION_DOT = .24817E-3
MEAN_MOTION_DDOT = 0

CCSDS_OMM_VERS = 2.0
CREATION_DATE  = 
ORIGINATOR     = 

OBJECT_NAME    = SOYUZ-MS 28
OBJECT_ID      = 2025-275A
CENTER_NAME    = EARTH
REF_FRAME      = TEME
TIME_SYSTEM    = UTC
MEAN_ELEMENT_THEORY = SGP/SGP4

EPOCH          = 2026-02-19T13:41:39.876288
MEAN_MOTION    = 15.48140240
ECCENTRICITY   = .00086043
INCLINATION    = 51.6323
RA_OF_ASC_NODE = 161.9142
ARG_OF_PERICENTER = 112.9152
MEAN_ANOMALY   = 247.2745

EPHEMERIS_TYPE = 0
CLASSIFICATION_TYPE = U
NORAD_CAT_ID   = 66664
ELEMENT_SET_NO = 999
REV_AT_EPOCH   = 128
BSTAR          = .13586232E-3
MEAN_MOTION_DOT = .6828E-4
MEAN_MOTION_DDOT = 0

CCSDS_OMM_VERS = 2.0
CREATION_DATE  = 
ORIGINATOR     = 

OBJECT_NAME    = DUPLEX
OBJECT_ID      = 1998-067XS
CENTER_NAME    = EARTH
REF_FRAME      = TEME
TIME_SYSTEM    = UTC
MEAN_ELEMENT_THEORY = SGP/SGP4

EPOCH          = 2026-02-19T12:48:48.273120
MEAN_MOTION    = 15.54947100
ECCENTRICITY   = .00015051
INCLINATION    = 51.6297
RA_OF_ASC_NODE = 160.1736
ARG_OF_PERICENTER = 75.9929
MEAN_ANOMALY   = 284.1230

EPHEMERIS_TYPE = 0
CLASSIFICATION_TYPE = U
NORAD_CAT_ID   = 66906
ELEMENT_SET_NO = 999
REV_AT_EPOCH   = 1230
BSTAR          = .47714528E-3
MEAN_MOTION_DOT = .32194E-3
MEAN_MOTION_DDOT = 0

CCSDS_OMM_VERS = 2.0
CREATION_DATE  = 
ORIGINATOR     = 

OBJECT_NAME    = ISS OBJECT XT
OBJECT_ID      = 1998-067XT
CENTER_NAME    = EARTH
REF_FRAME      = TEME
TIME_SYSTEM    = UTC
MEAN_ELEMENT_THEORY = SGP/SGP4

EPOCH          = 2026-02-19T12:40:47.515872
MEAN_MOTION    = 15.64097571
ECCENTRICITY   = .00031171
INCLINATION    = 51.6271
RA_OF_ASC_NODE = 157.8823
ARG_OF_PERICENTER = 339.9809
MEAN_ANOMALY   = 20.1063

EPHEMERIS_TYPE = 0
CLASSIFICATION_TYPE = U
NORAD_CAT_ID   = 66907
ELEMENT_SET_NO = 999
REV_AT_EPOCH   = 1233
BSTAR          = .11445173E-2
MEAN_MOTION_DOT = .111629E-2
MEAN_MOTION_DDOT = 0

CCSDS_OMM_VERS = 2.0
CREATION_DATE  = 
ORIGINATOR     = 

OBJECT_NAME    = ISS OBJECT XU
OBJECT_ID      = 1998-067XU
CENTER_NAME    = EARTH
REF_FRAME      = TEME
TIME_SYSTEM    = UTC
MEAN_ELEMENT_THEORY = SGP/SGP4

EPOCH          = 2026-02-19T12:39:34.221024
MEAN_MOTION    = 15.64152498
ECCENTRICITY   = .00030193
INCLINATION    = 51.6266
RA_OF_ASC_NODE = 157.8740
ARG_OF_PERICENTER = 344.7443
MEAN_ANOMALY   = 15.3460

EPHEMERIS_TYPE = 0
CLASSIFICATION_TYPE = U
NORAD_CAT_ID   = 66908
ELEMENT_SET_NO = 999
REV_AT_EPOCH   = 1233
BSTAR          = .11501618E-2
MEAN_MOTION_DOT = .112437E-2
MEAN_MOTION_DDOT = 0

CCSDS_OMM_VERS = 2.0
CREATION_DATE  = 
ORIGINATOR     = 

OBJECT_NAME    = SILVERSAT
OBJECT_ID      = 1998-067XV
CENTER_NAME    = EARTH
REF_FRAME      = TEME
TIME_SYSTEM    = UTC
MEAN_ELEMENT_THEORY = SGP/SGP4

EPOCH          = 2026-02-19T13:19:12.317952
MEAN_MOTION    = 15.65970316
ECCENTRICITY   = .00038399
INCLINATION    = 51.6278
RA_OF_ASC_NODE = 157.3089
ARG_OF_PERICENTER = 338.0283
MEAN_ANOMALY   = 22.0547

EPHEMERIS_TYPE = 0
CLASSIFICATION_TYPE = U
NORAD_CAT_ID   = 66909
ELEMENT_SET_NO = 999
REV_AT_EPOCH   = 1234
BSTAR          = .12932033E-2
MEAN_MOTION_DOT = .136429E-2
MEAN_MOTION_DDOT = 0

