YOTSUBA-KULOVER         
1 65941U 98067XN  26050.51725500  .00136059  00000+0  92807-3 0  9995
2 65941  51.6244 151.0396 0005202 331.8921  28.1797 15.73892363 20632
BOTAN                   
1 65942U 98067XP  26050.53216288  .00518361  11850-3  13854-2 0  9999
2 65942  51.6151 145.8072 0009727 351.0195   9.0636 15.93841465 20702
E-KAGAKU-1              
1 65943U 98067XQ  26050.51896130  .00132220  00000+0  90890-3 0  9991
2 65943  51.6273 151.0652 0005333 343.3956  16.6867 15.73725053 20633
HRC MONOBLOCK CAMERA    
1 66052U 98067XR  26050.52081363  .00044157  00000+0  53406-3 0  9991
2 66052  51.6291 157.0873 0002451  23.1044 337.0059 15.60240536 19551
HTV-X1                  
1 66174U 25241A   26050.57060042  .00006828  00000+0  13586-3 0  9994
2 66174  51.6323 161.9142 0008604 112.9152 247.2745 15.48140240   515
SZ-21 MODULE            
1 66515U 25246C   26050.09062311  .00030016  00000+0  27526-3 0  9991
2 66515  41.4761 317.7232 0001783 298.3543  61.7118 15.67079513 15156
SHENZHOU-22             
1 66645U 25272A   26050.21688436  .00024817  00000+0  30290-3 0  9994
2 66645  41.4677 320.4938 0004452 142.8604 217.2543 15.59868728267645
SOYUZ-MS 28             
1 66664U 25275A   26050.57060042  .00006828  00000+0  13586-3 0  9995
2 66664  51.6323 161.9142 0008604 112.9152 247.2745 15.48140240  1284
DUPLEX                  
1 66906U 98067XS  26050.53389205  .00032194  00000+0  47715-3 0  9990
2 66906  51.6297 160.1736 0001505  75.9929 284.1230 15.54947100 12307
ISS OBJECT XT           
1 66907U 98067XT  26050.52832773  .00111629  00000+0  11445-2 0  9994
2 66907  51.6271 157.8823 0003117 339.9809  20.1063 15.64097571 12335
ISS OBJECT XU           
1 66908U 98067XU  26050.52747941  .00112437  00000+0  11502-2 0  9999
2 66908  51.6266 157.8740 0003019 344.7443  15.3460 15.64152498 12334
SILVERSAT               
1 66909U 98067XV  26050.55500368  .00136429  00000+0  12932-2 0  9998
2 66909  51.6278 157.3089 0003839 338.0283  22.0547 15.65970316 12347
